{"type":"FeatureCollection","features":[{"type":"Feature","properties":{},"geometry":{"coordinates":[[-99.04043620570964,19.55661583535084],[-99.03569294816286,19.563277968434377],[-99.03184464487046,19.568674937712785],[-99.02674340562211,19.57533657246816],[-99.024774506263,19.5793840135146],[-99.0271013873237,19.585117714249535],[-99.02987574551135,19.589164909511013],[-99.03157615859428,19.593802195676048],[-99.03399253508037,19.59843934824498],[-99.03497698475971,19.60063141021898]],"type":"LineString"}},{"type":"Feature","properties":{},"geometry":{"coordinates":[[-99.03121817689271,19.550459442422778],[-99.02683290104751,19.55577250774222],[-99.0233425794567,19.559314454066552],[-99.02182115722454,19.56083240724996],[-99.01976276244004,19.563530955405795],[-99.01716739510317,19.566398113333136],[-99.01609344999844,19.567494366122745],[-99.01877831276072,19.570783079759707],[-99.01931528531307,19.57398740285788],[-99.02146317552297,19.576517086610053],[-99.02396904743445,19.579046730644635],[-99.02504299253917,19.582756803373115],[-99.02549046966617,19.58545498440654],[-99.02450601998683,19.58806880417214],[-99.0269223964729,19.589670801765735],[-99.0292492775336,19.59287474913043],[-99.03094969061607,19.595488448433088],[-99.03381354422913,19.601221575648466]],"type":"LineString"}}]}