{"type":"FeatureCollection","features":[{"type":"Feature","properties":{},"geometry":{"coordinates":[[-99.0427373845834,19.60088865664406],[-99.04119498030052,19.592896818360288],[-99.03568639357498,19.58646154330161],[-99.02951677644297,19.584385593253472],[-99.02422853318679,19.5853197740862],[-99.01883011819592,19.588329875462435],[-99.01739788564774,19.59248164708721],[-99.01673685524072,19.59725605207788],[-99.01651651177134,19.601718954744868]],"type":"LineString"}},{"type":"Feature","properties":{},"geometry":{"coordinates":[[-99.06444121628043,19.56092549855923],[-99.06477173148393,19.55334695080232],[-99.06168692291766,19.54472981328253],[-99.05485627537861,19.54057681161494],[-99.04383910192806,19.5424456755878],[-99.03877120214125,19.545041284099526],[-99.03656776745137,19.551685851665198],[-99.03667793918551,19.55781106997972],[-99.03689828265489,19.561548377057264]],"type":"LineString"}}]}